[{"OBJECT_NAME":"STARLINK-36872","OBJECT_ID":"2026-037Z","EPOCH":"2026-03-11T06:00:02.000160","MEAN_MOTION":15.81997357,"ECCENTRICITY":0.00018082,"INCLINATION":42.9988,"RA_OF_ASC_NODE":188.7556,"ARG_OF_PERICENTER":262.4662,"MEAN_ANOMALY":9.0544,"EPHEMERIS_TYPE":0,"CLASSIFICATION_TYPE":"U","NORAD_CAT_ID":67955,"ELEMENT_SET_NO":999,"REV_AT_EPOCH":344,"BSTAR":8.1213677e-5,"MEAN_MOTION_DOT":0.00016585,"MEAN_MOTION_DDOT":0},{"OBJECT_NAME":"STARLINK-36918","OBJECT_ID":"2026-037AA","EPOCH":"2026-03-11T06:00:02.000160","MEAN_MOTION":15.81971321,"ECCENTRICITY":0.0001468,"INCLINATION":42.9988,"RA_OF_ASC_NODE":188.7454,"ARG_OF_PERICENTER":260.8059,"MEAN_ANOMALY":14.9949,"EPHEMERIS_TYPE":0,"CLASSIFICATION_TYPE":"U","NORAD_CAT_ID":67956,"ELEMENT_SET_NO":999,"REV_AT_EPOCH":344,"BSTAR":0.00028701382,"MEAN_MOTION_DOT":0.00060196,"MEAN_MOTION_DDOT":0},{"OBJECT_NAME":"STARLINK-36829","OBJECT_ID":"2026-037AB","EPOCH":"2026-03-11T06:00:02.000160","MEAN_MOTION":15.81975501,"ECCENTRICITY":0.00016634,"INCLINATION":42.9987,"RA_OF_ASC_NODE":188.7669,"ARG_OF_PERICENTER":262.5827,"MEAN_ANOMALY":4.6717,"EPHEMERIS_TYPE":0,"CLASSIFICATION_TYPE":"U","NORAD_CAT_ID":67957,"ELEMENT_SET_NO":999,"REV_AT_EPOCH":344,"BSTAR":0.00026369267,"MEAN_MOTION_DOT":0.00055241,"MEAN_MOTION_DDOT":0},{"OBJECT_NAME":"STARLINK-36799","OBJECT_ID":"2026-037AC","EPOCH":"2026-03-11T06:00:02.000160","MEAN_MOTION":15.81973001,"ECCENTRICITY":0.0001682,"INCLINATION":42.9984,"RA_OF_ASC_NODE":188.7348,"ARG_OF_PERICENTER":262.1904,"MEAN_ANOMALY":17.8818,"EPHEMERIS_TYPE":0,"CLASSIFICATION_TYPE":"U","NORAD_CAT_ID":67958,"ELEMENT_SET_NO":999,"REV_AT_EPOCH":344,"BSTAR":0.00029602223,"MEAN_MOTION_DOT":0.00062121,"MEAN_MOTION_DDOT":0},{"OBJECT_NAME":"STARLINK-36834","OBJECT_ID":"2026-037AD","EPOCH":"2026-03-11T06:00:02.000160","MEAN_MOTION":15.82003191,"ECCENTRICITY":0.00016912,"INCLINATION":42.9984,"RA_OF_ASC_NODE":188.7128,"ARG_OF_PERICENTER":263.1413,"MEAN_ANOMALY":25.466,"EPHEMERIS_TYPE":0,"CLASSIFICATION_TYPE":"U","NORAD_CAT_ID":67959,"ELEMENT_SET_NO":999,"REV_AT_EPOCH":344,"BSTAR":4.5802839e-5,"MEAN_MOTION_DOT":9.116e-5,"MEAN_MOTION_DDOT":0},{"OBJECT_NAME":"STARLINK-36841","OBJECT_ID":"2026-037AE","EPOCH":"2026-03-11T06:00:02.000160","MEAN_MOTION":15.81996684,"ECCENTRICITY":0.00015775,"INCLINATION":42.9986,"RA_OF_ASC_NODE":188.7238,"ARG_OF_PERICENTER":280.6006,"MEAN_ANOMALY":3.7344,"EPHEMERIS_TYPE":0,"CLASSIFICATION_TYPE":"U","NORAD_CAT_ID":67960,"ELEMENT_SET_NO":999,"REV_AT_EPOCH":344,"BSTAR":8.9222775e-5,"MEAN_MOTION_DOT":0.00018277,"MEAN_MOTION_DDOT":0},{"OBJECT_NAME":"STARLINK-36912","OBJECT_ID":"2026-038A","EPOCH":"2026-03-11T06:00:02.000160","MEAN_MOTION":15.82122352,"ECCENTRICITY":0.00012055,"INCLINATION":97.2757,"RA_OF_ASC_NODE":80.6199,"ARG_OF_PERICENTER":98.3136,"MEAN_ANOMALY":191.1003,"EPHEMERIS_TYPE":0,"CLASSIFICATION_TYPE":"U","NORAD_CAT_ID":67961,"ELEMENT_SET_NO":999,"REV_AT_EPOCH":345,"BSTAR":-0.0081864473,"MEAN_MOTION_DOT":-0.01474756,"MEAN_MOTION_DDOT":0},{"OBJECT_NAME":"STARLINK-36881","OBJECT_ID":"2026-038B","EPOCH":"2026-03-11T06:00:02.000160","MEAN_MOTION":15.82249691,"ECCENTRICITY":0.00011801,"INCLINATION":97.2757,"RA_OF_ASC_NODE":80.6211,"ARG_OF_PERICENTER":95.668,"MEAN_ANOMALY":197.3705,"EPHEMERIS_TYPE":0,"CLASSIFICATION_TYPE":"U","NORAD_CAT_ID":67962,"ELEMENT_SET_NO":999,"REV_AT_EPOCH":345,"BSTAR":-0.008571627,"MEAN_MOTION_DOT":-0.01543906,"MEAN_MOTION_DDOT":0},{"OBJECT_NAME":"STARLINK-36357","OBJECT_ID":"2026-038C","EPOCH":"2026-03-11T06:00:02.000160","MEAN_MOTION":15.82567782,"ECCENTRICITY":0.00011824,"INCLINATION":97.2749,"RA_OF_ASC_NODE":80.6253,"ARG_OF_PERICENTER":98.7855,"MEAN_ANOMALY":204.3684,"EPHEMERIS_TYPE":0,"CLASSIFICATION_TYPE":"U","NORAD_CAT_ID":67963,"ELEMENT_SET_NO":999,"REV_AT_EPOCH":345,"BSTAR":-0.0088577412,"MEAN_MOTION_DOT":-0.01609914,"MEAN_MOTION_DDOT":0},{"OBJECT_NAME":"STARLINK-36349","OBJECT_ID":"2026-038D","EPOCH":"2026-03-11T06:00:02.000160","MEAN_MOTION":15.82417692,"ECCENTRICITY":0.00012688,"INCLINATION":97.2746,"RA_OF_ASC_NODE":80.6225,"ARG_OF_PERICENTER":98.3614,"MEAN_ANOMALY":199.7272,"EPHEMERIS_TYPE":0,"CLASSIFICATION_TYPE":"U","NORAD_CAT_ID":67964,"ELEMENT_SET_NO":999,"REV_AT_EPOCH":345,"BSTAR":-0.0088076601,"MEAN_MOTION_DOT":-0.01592171,"MEAN_MOTION_DDOT":0},{"OBJECT_NAME":"STARLINK-36806","OBJECT_ID":"2026-038E","EPOCH":"2026-03-11T06:00:02.000160","MEAN_MOTION":15.82736818,"ECCENTRICITY":0.00011286,"INCLINATION":97.274,"RA_OF_ASC_NODE":80.6271,"ARG_OF_PERICENTER":100.0541,"MEAN_ANOMALY":209.0001,"EPHEMERIS_TYPE":0,"CLASSIFICATION_TYPE":"U","NORAD_CAT_ID":67965,"ELEMENT_SET_NO":999,"REV_AT_EPOCH":345,"BSTAR":-0.0088095164,"MEAN_MOTION_DOT":-0.01613401,"MEAN_MOTION_DDOT":0},{"OBJECT_NAME":"STARLINK-36820","OBJECT_ID":"2026-038F","EPOCH":"2026-03-11T06:00:02.000160","MEAN_MOTION":15.82884932,"ECCENTRICITY":0.00011926,"INCLINATION":97.2737,"RA_OF_ASC_NODE":80.6293,"ARG_OF_PERICENTER":98.0597,"MEAN_ANOMALY":215.9109,"EPHEMERIS_TYPE":0,"CLASSIFICATION_TYPE":"U","NORAD_CAT_ID":67966,"ELEMENT_SET_NO":999,"REV_AT_EPOCH":345,"BSTAR":-0.0088204968,"MEAN_MOTION_DOT":-0.01625089,"MEAN_MOTION_DDOT":0},{"OBJECT_NAME":"STARLINK-36819","OBJECT_ID":"2026-038G","EPOCH":"2026-03-11T06:00:02.000160","MEAN_MOTION":15.83022145,"ECCENTRICITY":0.00011448,"INCLINATION":97.2737,"RA_OF_ASC_NODE":80.6314,"ARG_OF_PERICENTER":101.6707,"MEAN_ANOMALY":217.6195,"EPHEMERIS_TYPE":0,"CLASSIFICATION_TYPE":"U","NORAD_CAT_ID":67967,"ELEMENT_SET_NO":999,"REV_AT_EPOCH":345,"BSTAR":-0.0086538584,"MEAN_MOTION_DOT":-0.01607305,"MEAN_MOTION_DDOT":0},{"OBJECT_NAME":"STARLINK-36812","OBJECT_ID":"2026-038H","EPOCH":"2026-03-11T06:00:02.000160","MEAN_MOTION":15.83148874,"ECCENTRICITY":0.00011812,"INCLINATION":97.2728,"RA_OF_ASC_NODE":80.6326,"ARG_OF_PERICENTER":99.9631,"MEAN_ANOMALY":223.8284,"EPHEMERIS_TYPE":0,"CLASSIFICATION_TYPE":"U","NORAD_CAT_ID":67968,"ELEMENT_SET_NO":999,"REV_AT_EPOCH":345,"BSTAR":-0.0085960791,"MEAN_MOTION_DOT":-0.01606354,"MEAN_MOTION_DDOT":0},{"OBJECT_NAME":"STARLINK-36709","OBJECT_ID":"2026-038J","EPOCH":"2026-03-11T06:00:02.000160","MEAN_MOTION":15.83457371,"ECCENTRICITY":0.0001181,"INCLINATION":97.2725,"RA_OF_ASC_NODE":80.6373,"ARG_OF_PERICENTER":93.698,"MEAN_ANOMALY":240.9812,"EPHEMERIS_TYPE":0,"CLASSIFICATION_TYPE":"U","NORAD_CAT_ID":67969,"ELEMENT_SET_NO":999,"REV_AT_EPOCH":345,"BSTAR":-0.0084325215,"MEAN_MOTION_DOT":-0.01599949,"MEAN_MOTION_DDOT":0},{"OBJECT_NAME":"STARLINK-36319","OBJECT_ID":"2026-038K","EPOCH":"2026-03-11T06:00:02.000160","MEAN_MOTION":15.83302724,"ECCENTRICITY":0.00012199,"INCLINATION":97.2723,"RA_OF_ASC_NODE":80.6345,"ARG_OF_PERICENTER":96.4083,"MEAN_ANOMALY":232.7816,"EPHEMERIS_TYPE":0,"CLASSIFICATION_TYPE":"U","NORAD_CAT_ID":67970,"ELEMENT_SET_NO":999,"REV_AT_EPOCH":342,"BSTAR":-0.0085133366,"MEAN_MOTION_DOT":-0.01603052,"MEAN_MOTION_DDOT":0}]
