STARLINK-36872          
1 67955U 26037Z   26070.25002315  .00016585  00000+0  81214-4 0  9997
2 67955  42.9988 188.7556 0001808 262.4662   9.0544 15.81997357  3447
STARLINK-36918          
1 67956U 26037AA  26070.25002315  .00060196  00000+0  28701-3 0  9996
2 67956  42.9988 188.7454 0001468 260.8059  14.9949 15.81971321  3446
STARLINK-36829          
1 67957U 26037AB  26070.25002315  .00055241  00000+0  26369-3 0  9990
2 67957  42.9987 188.7669 0001663 262.5827   4.6717 15.81975501  3446
STARLINK-36799          
1 67958U 26037AC  26070.25002315  .00062121  00000+0  29602-3 0  9999
2 67958  42.9984 188.7348 0001682 262.1904  17.8818 15.81973001  3442
STARLINK-36834          
1 67959U 26037AD  26070.25002315  .00009116  00000+0  45803-4 0  9997
2 67959  42.9984 188.7128 0001691 263.1413  25.4660 15.82003191  3440
STARLINK-36841          
1 67960U 26037AE  26070.25002315  .00018277  00000+0  89223-4 0  9991
2 67960  42.9986 188.7238 0001577 280.6006   3.7344 15.81996684  3446
STARLINK-36912          
1 67961U 26038A   26070.25002315 -.01474756  00000+0 -81864-2 0  9995
2 67961  97.2757  80.6199 0001205  98.3136 191.1003 15.82122352  3457
STARLINK-36881          
1 67962U 26038B   26070.25002315 -.01543906  00000+0 -85716-2 0  9990
2 67962  97.2757  80.6211 0001180  95.6680 197.3705 15.82249691  3452
STARLINK-36357          
1 67963U 26038C   26070.25002315 -.01609914  00000+0 -88577-2 0  9991
2 67963  97.2749  80.6253 0001182  98.7855 204.3684 15.82567782  3459
STARLINK-36349          
1 67964U 26038D   26070.25002315 -.01592171  00000+0 -88077-2 0  9993
2 67964  97.2746  80.6225 0001268  98.3614 199.7272 15.82417692  3454
STARLINK-36806          
1 67965U 26038E   26070.25002315 -.01613401  00000+0 -88095-2 0  9994
2 67965  97.2740  80.6271 0001128 100.0541 209.0001 15.82736818  3454
STARLINK-36820          
1 67966U 26038F   26070.25002315 -.01625089  00000+0 -88205-2 0  9993
2 67966  97.2737  80.6293 0001192  98.0597 215.9109 15.82884932  3459
STARLINK-36819          
1 67967U 26038G   26070.25002315 -.01607305  00000+0 -86539-2 0  9993
2 67967  97.2737  80.6314 0001144 101.6707 217.6195 15.83022145  3450
STARLINK-36812          
1 67968U 26038H   26070.25002315 -.01606354  00000+0 -85961-2 0  9995
2 67968  97.2728  80.6326 0001181  99.9631 223.8284 15.83148874  3456
STARLINK-36709          
1 67969U 26038J   26070.25002315 -.01599949  00000+0 -84325-2 0  9990
2 67969  97.2725  80.6373 0001181  93.6980 240.9812 15.83457371  3456
STARLINK-36319          
1 67970U 26038K   26070.25002315 -.01603052  00000+0 -85133-2 0  9991
2 67970  97.2723  80.6345 0001219  96.4083 232.7816 15.83302724  3423
